[{"OBJECT_NAME":"STARLINK-3344","OBJECT_ID":"2022-005G","EPOCH":"2026-03-09T19:57:23.794560","MEAN_MOTION":15.08837664,"ECCENTRICITY":0.00014357,"INCLINATION":53.2182,"RA_OF_ASC_NODE":288.4637,"ARG_OF_PERICENTER":91.5574,"MEAN_ANOMALY":268.5583,"EPHEMERIS_TYPE":0,"CLASSIFICATION_TYPE":"U","NORAD_CAT_ID":51110,"ELEMENT_SET_NO":999,"REV_AT_EPOCH":22890,"BSTAR":-1.5577853e-5,"MEAN_MOTION_DOT":-5.36e-6,"MEAN_MOTION_DDOT":0},{"OBJECT_NAME":"PRSC-S1","OBJECT_ID":"2025-164A","EPOCH":"2026-03-09T14:34:55.095168","MEAN_MOTION":15.0891951,"ECCENTRICITY":0.0004466,"INCLINATION":41.129,"RA_OF_ASC_NODE":129.3637,"ARG_OF_PERICENTER":348.3012,"MEAN_ANOMALY":11.7698,"EPHEMERIS_TYPE":0,"CLASSIFICATION_TYPE":"U","NORAD_CAT_ID":65055,"ELEMENT_SET_NO":999,"REV_AT_EPOCH":3340,"BSTAR":0.00046631,"MEAN_MOTION_DOT":7.316e-5,"MEAN_MOTION_DDOT":0}]
